0 COSMOS 886 DEB
1 09722U 76126T   13282.98431617  .00000758  00000-0  16932-2 0  3523
2 09722 065.7620 328.7065 0810663 033.4346 024.8105 12.46876530657949
0 COSMOS 886 DEB
1 09722U 76126T   13283.53389956  .00000841  00000-0  17466-2 0  3541
2 09722 065.7631 327.6117 0810304 033.2617 331.7131 12.46876986658011
0 COSMOS 886 DEB
1 09722U 76126T   13286.19201919  .00000957  00000-0  21044-2 0  3543
2 09722 065.7617 322.2979 0810976 032.1600 023.4668 12.46880910658345
0 COSMOS 886 DEB
1 09722U 76126T   13288.19745708  .00001312  00000-0  28386-2 0  3557
2 09722 065.7618 318.2910 0811188 031.3672 025.4516 12.46885440658596
0 COSMOS 886 DEB
1 09722U 76126T   13290.12380264  .00001290  00000-0  27888-2 0  3567
2 09722 065.7622 314.4427 0811472 030.6021 032.4429 12.46890142658831
0 COSMOS 886 DEB
1 09722U 76126T   13291.16683646  .00001355  00000-0  29225-2 0  3572
2 09722 065.7623 312.3587 0811621 030.1908 034.4330 12.46892969658967
0 COSMOS 886 DEB
1 09722U 76126T   13292.20970410  .00001510  00000-0  32412-2 0  3582
2 09722 065.7625 310.2749 0811781 029.7803 035.6872 12.46895790659095
0 COSMOS 886 DEB
1 09722U 76126T   13293.42110693  .00001618  00000-0  34631-2 0  3591
2 09722 065.7626 307.8544 0811991 029.3034 073.4799 12.46898699659242
0 COSMOS 886 DEB
1 09722U 76126T   13294.47340488  .00001714  00000-0  36581-2 0  3609
2 09722 065.7627 305.7519 0812184 028.8906 117.0871 12.46902442659371
0 COSMOS 886 DEB
1 09722U 76126T   13295.81571645  .00001981  00000-0  42047-2 0  3610
2 09722 065.7628 303.0699 0812477 028.3646 022.5415 12.46906969659544
